NORAD_CAT_ID,OBJECT_NAME,OBJECT_TYPE,EPOCH,MEAN_MOTION,ECCENTRICITY,INCLINATION,RA_OF_ASC_NODE,ARG_OF_PERICENTER,MEAN_ANOMALY,BSTAR,MEAN_MOTION_DOT,MEAN_MOTION_DDOT,TLE_LINE0,TLE_LINE1,TLE_LINE2,SEMIMAJOR_AXIS,PERIOD,APOGEE,PERIGEE,DECAYED
54805.0,STARLINK-5417,PAYLOAD,2023-09-17 18:40:01,15.08843877,0.0001344,53.2162,126.648,88.1598,271.9549,-0.0001194,-2.188e-05,0.0,0 STARLINK-5417,1 54805U 22175AZ  23260.77779253 -.00002188  00000-0 -11940-3 0  9998,2 54805  53.2162 126.6480 0001344  88.1598 271.9549 15.08843877 41510,6917.869,95.437,540.663,538.804,0.0
54805.0,STARLINK-5417,PAYLOAD,2023-09-17 21:50:46,15.08849033,0.0001292,53.2166,126.0535,86.3083,273.8057,-5.7184e-05,-1.198e-05,0.0,0 STARLINK-5417,1 54805U 22175AZ  23260.91026561 -.00001198  00000-0 -57184-4 0  9992,2 54805  53.2166 126.0535 0001292  86.3083 273.8057 15.08849033 41537,6917.853,95.437,540.612,538.824,0.0
54805.0,STARLINK-5417,PAYLOAD,2023-09-18 21:41:34,15.08843298,0.0001087,53.2163,121.5928,84.9425,275.1691,-2.3314e-05,-6.59e-06,0.0,0 STARLINK-5417,1 54805U 22175AZ  23261.90386940 -.00000659  00000-0 -23314-4 0  9991,2 54805  53.2163 121.5928 0001087  84.9425 275.1691 15.08843298 43848,6917.87,95.437,540.487,538.983,0.0
54805.0,STARLINK-5417,PAYLOAD,2023-09-19 02:27:43,15.08849962,0.0001204,53.2168,120.7016,86.326,273.787,1.2357e-05,-9.1e-07,0.0,0 STARLINK-5417,1 54805U 22175AZ  23262.10258269 -.00000091  00000-0  12357-4 0  9990,2 54805  53.2168 120.7016 0001204  86.3260 273.7870 15.08849962 41717,6917.85,95.437,540.548,538.882,0.0
54805.0,STARLINK-5417,PAYLOAD,2023-09-19 18:21:35,15.08842169,0.0001156,53.2168,117.7295,79.2227,280.8895,-3.3737e-05,-8.25e-06,0.0,0 STARLINK-5417,1 54805U 22175AZ  23262.76498914 -.00000825  00000-0 -33737-4 0  9996,2 54805  53.2168 117.7295 0001156  79.2227 280.8895 15.08842169 41811,6917.874,95.437,540.538,538.939,0.0
54805.0,STARLINK-5417,PAYLOAD,2023-09-19 23:07:43,15.08851037,0.0001162,53.2166,116.8371,90.1485,269.964,4.0951e-05,3.64e-06,0.0,0 STARLINK-5417,1 54805U 22175AZ  23262.96370041  .00000364  00000-0  40951-4 0  9990,2 54805  53.2166 116.8371 0001162  90.1485 269.9640 15.08851037 41842,6917.847,95.437,540.516,538.908,0.0
54805.0,STARLINK-5417,PAYLOAD,2023-09-20 18:12:23,15.08828789,0.0001411,53.2168,113.2665,101.8496,258.2655,-0.00014894,-2.657e-05,0.0,0 STARLINK-5417,1 54805U 22175AZ  23263.75860682 -.00002657  00000-0 -14894-3 0  9998,2 54805  53.2168 113.2665 0001411 101.8496 258.2655 15.08828789 41968,6917.915,95.438,540.756,538.804,0.0
54805.0,STARLINK-5417,PAYLOAD,2023-09-20 21:23:10,15.08827341,0.0001361,53.217,112.6713,77.7895,282.3249,-0.00014973,-2.669e-05,0.0,0 STARLINK-5417,1 54805U 22175AZ  23263.89108966 -.00002669  00000-0 -14973-3 0  9994,2 54805  53.2170 112.6713 0001361  77.7895 282.3249 15.08827341 44149,6917.919,95.438,540.726,538.843,0.0
54805.0,STARLINK-5417,PAYLOAD,2023-09-20 22:58:33,15.08828479,0.0001324,53.2171,112.3742,88.3573,271.7571,-0.00013865,-2.493e-05,0.0,0 STARLINK-5417,1 54805U 22175AZ  23263.95732851 -.00002493  00000-0 -13865-3 0  9991,2 54805  53.2171 112.3742 0001324  88.3573 271.7571 15.08828479 44153,6917.916,95.438,540.697,538.865,0.0
54805.0,STARLINK-5417,PAYLOAD,2023-09-21 18:03:10,15.08837274,0.0001129,53.2158,108.8079,99.6857,260.4263,-6.6801e-06,-3.94e-06,0.0,0 STARLINK-5417,1 54805U 22175AZ  23264.75220126 -.00000394  00000-0 -66801-5 0  9995,2 54805  53.2158 108.8079 0001129  99.6857 260.4263 15.08837274 42114,6917.889,95.438,540.535,538.973,0.0
54805.0,STARLINK-5417,PAYLOAD,2023-09-21 21:13:56,15.08841517,0.0001306,53.2166,108.2115,87.5718,272.5424,2.4185e-05,9.7e-07,0.0,0 STARLINK-5417,1 54805U 22175AZ  23264.88467854  .00000097  00000-0  24185-4 0  9996,2 54805  53.2166 108.2115 0001306  87.5718 272.5424 15.08841517 44296,6917.876,95.437,540.644,538.837,0.0
54805.0,STARLINK-5417,PAYLOAD,2023-09-22 13:07:47,15.08832518,0.0001429,53.2166,105.2398,79.7258,280.3895,0.00012095,1.637e-05,0.0,0 STARLINK-5417,1 54805U 22175AZ  23265.54708299  .00001637  00000-0  12095-3 0  9998,2 54805  53.2166 105.2398 0001429  79.7258 280.3895 15.08832518 44395,6917.903,95.438,540.757,538.78,0.0
54805.0,STARLINK-5417,PAYLOAD,2023-09-22 21:04:43,15.08837528,0.0001489,53.2168,103.7532,75.5731,284.5427,0.00014912,2.086e-05,0.0,0 STARLINK-5417,1 54805U 22175AZ  23265.87828001  .00002086  00000-0  14912-3 0  9997,2 54805  53.2168 103.7532 0001489  75.5731 284.5427 15.08837528 44445,6917.888,95.438,540.783,538.723,0.0
54805.0,STARLINK-5417,PAYLOAD,2023-09-23 22:30:53,15.0884883,0.0001291,53.2164,98.9927,93.7788,266.3352,1.1554e-05,-1.04e-06,0.0,0 STARLINK-5417,1 54805U 22175AZ  23266.93811528 -.00000104  00000-0  11554-4 0  9991,2 54805  53.2164  98.9927 0001291  93.7788 266.3352 15.08848830 42440,6917.853,95.437,540.611,538.825,0.0
54805.0,STARLINK-5417,PAYLOAD,2023-09-24 12:49:21,15.08842825,0.0001264,53.2161,96.3177,90.7942,269.3195,-3.3456e-05,-8.2e-06,0.0,0 STARLINK-5417,1 54805U 22175AZ  23267.53427911 -.00000820  00000-0 -33456-4 0  9998,2 54805  53.2161  96.3177 0001264  90.7942 269.3195 15.08842825 44690,6917.872,95.437,540.611,538.862,0.0
54805.0,STARLINK-5417,PAYLOAD,2023-09-24 19:10:53,15.08847967,0.0001267,53.2164,95.128,86.4926,273.6211,-1.9727e-05,-6.02e-06,0.0,0 STARLINK-5417,1 54805U 22175AZ  23267.79923475 -.00000602  00000-0 -19727-4 0  9995,2 54805  53.2164  95.1280 0001267  86.4926 273.6211 15.08847967 44736,6917.856,95.437,540.598,538.845,0.0
54805.0,STARLINK-5417,PAYLOAD,2023-09-25 12:40:11,15.08815565,0.0001482,53.2159,91.8579,81.3516,278.7644,-0.0002048,-3.544e-05,0.0,0 STARLINK-5417,1 54805U 22175AZ  23268.52790667 -.00003544  00000-0 -20480-3 0  9997,2 54805  53.2159  91.8579 0001482  81.3516 278.7644 15.08815565 44849,6917.955,95.439,540.845,538.795,0.0
54805.0,STARLINK-5417,PAYLOAD,2023-09-25 19:01:42,15.08830668,0.0001269,53.2163,90.6675,85.7155,274.3982,-6.9309e-05,-1.39e-05,0.0,0 STARLINK-5417,1 54805U 22175AZ  23268.79285511 -.00001390  00000-0 -69309-4 0  9994,2 54805  53.2163  90.6675 0001269  85.7155 274.3982 15.08830668 42721,6917.909,95.438,540.652,538.896,0.0
54805.0,STARLINK-5417,PAYLOAD,2023-09-25 20:37:06,15.08813003,0.0001278,53.218,90.3686,91.9292,268.1847,5.7651e-05,6.29e-06,0.0,0 STARLINK-5417,1 54805U 22175AZ  23268.85910023  .00000629  00000-0  57651-4 0  9993,2 54805  53.2180  90.3686 0001278  91.9292 268.1847 15.08813003 44895,6917.963,95.439,540.712,538.944,0.0
54805.0,STARLINK-5417,PAYLOAD,2023-09-26 12:30:56,15.08841385,0.0001372,53.2169,87.397,91.2941,268.8208,5.2743e-05,5.52e-06,0.0,0 STARLINK-5417,1 54805U 22175AZ  23269.52148542  .00000552  00000-0  52743-4 0  9999,2 54805  53.2169  87.3970 0001372  91.2941 268.8208 15.08841385 42837,6917.876,95.437,540.69,538.792,0.0
54805.0,STARLINK-5417,PAYLOAD,2023-09-26 17:17:05,15.08846991,0.0001325,53.2161,86.5047,83.9652,276.1491,9.0381e-05,1.151e-05,0.0,0 STARLINK-5417,1 54805U 22175AZ  23269.72020046  .00001151  00000-0  90381-4 0  9995,2 54805  53.2161  86.5047 0001325  83.9652 276.1491 15.08846991 45028,6917.859,95.437,540.641,538.807,0.0
54805.0,STARLINK-5417,PAYLOAD,2023-09-27 12:21:44,15.08830798,0.0001478,53.2161,82.9361,94.2168,265.8994,4.5937e-05,4.43e-06,0.0,0 STARLINK-5417,1 54805U 22175AZ  23270.51509431  .00000443  00000-0  45937-4 0  9994,2 54805  53.2161  82.9361 0001478  94.2168 265.8994 15.08830798 45147,6917.909,95.438,540.796,538.751,0.0
54805.0,STARLINK-5417,PAYLOAD,2023-09-27 17:07:53,15.0883569,0.0001585,53.2184,82.0439,100.3561,259.7609,4.6749e-05,4.56e-06,0.0,0 STARLINK-5417,1 54805U 22175AZ  23270.71381197  .00000456  00000-0  46749-4 0  9999,2 54805  53.2184  82.0439 0001585 100.3561 259.7609 15.08835690 43019,6917.894,95.438,540.855,538.662,0.0
54805.0,STARLINK-5417,PAYLOAD,2023-09-28 15:23:17,15.08845372,0.000131,53.2167,77.8809,88.8056,271.3086,-8.4569e-05,-1.634e-05,0.0,0 STARLINK-5417,1 54805U 22175AZ  23271.64116976 -.00001634  00000-0 -84569-4 0  9996,2 54805  53.2167  77.8809 0001310  88.8056 271.3086 15.08845372 45310,6917.864,95.437,540.635,538.823,0.0
54805.0,STARLINK-5417,PAYLOAD,2023-09-28 18:34:03,15.08847033,0.0001302,53.217,77.2859,87.6361,272.478,-6.7658e-05,-1.365e-05,0.0,0 STARLINK-5417,1 54805U 22175AZ  23271.77364768 -.00001365  00000-0 -67658-4 0  9995,2 54805  53.2170  77.2859 0001302  87.6361 272.4780 15.08847033 43171,6917.859,95.437,540.625,538.823,0.0
54805.0,STARLINK-5417,PAYLOAD,2023-09-29 10:27:54,15.08833233,0.0001374,53.2174,74.3122,90.8919,269.2231,2.5939e-05,1.25e-06,0.0,0 STARLINK-5417,1 54805U 22175AZ  23272.43605219  .00000125  00000-0  25939-4 0  9995,2 54805  53.2174  74.3122 0001374  90.8919 269.2231 15.08833233 43273,6917.901,95.438,540.717,538.816,0.0
54805.0,STARLINK-5417,PAYLOAD,2023-09-29 18:24:49,15.08844328,0.0001234,53.2174,72.8256,85.0464,275.0669,4.2095e-05,3.82e-06,0.0,0 STARLINK-5417,1 54805U 22175AZ  23272.76724437  .00000382  00000-0  42095-4 0  9992,2 54805  53.2174  72.8256 0001234  85.0464 275.0669 15.08844328 43323,6917.867,95.437,540.586,538.878,0.0
54805.0,STARLINK-5417,PAYLOAD,2023-09-30 10:18:41,15.08836638,0.0001371,53.2177,69.8525,83.6934,276.4214,4.6739e-06,-2.14e-06,0.0,0 STARLINK-5417,1 54805U 22175AZ  23273.42965035 -.00000214  00000-0  46739-5 0  9992,2 54805  53.2177  69.8525 0001371  83.6934 276.4214 15.08836638 43426,6917.891,95.438,540.704,538.807,0.0
54805.0,STARLINK-5417,PAYLOAD,2023-10-01 03:47:55,15.08845267,0.0001352,53.2174,66.5814,78.2145,281.8999,6.649e-05,7.71e-06,0.0,0 STARLINK-5417,1 54805U 22175AZ  23274.15828164  .00000771  00000-0  66490-4 0  9996,2 54805  53.2174  66.5814 0001352  78.2145 281.8999 15.08845267 43531,6917.864,95.437,540.665,538.794,0.0
54805.0,STARLINK-5417,PAYLOAD,2023-10-01 10:09:28,15.08848321,0.0001295,53.2176,65.391,82.1057,278.0082,1.4472e-05,-5.8e-07,0.0,0 STARLINK-5417,1 54805U 22175AZ  23274.42324091 -.00000058  00000-0  14472-4 0  9998,2 54805  53.2176  65.3910 0001295  82.1057 278.0082 15.08848321 45738,6917.855,95.437,540.616,538.824,0.0
